LDPE-2                  
1 54219U 22144A   26195.21447271  .00000023  00000+0  00000+0 0  9998
2 54219   5.6762  63.4247 0002370 110.1611  64.1900  1.00543453 12118
EUTELSAT HOTBIRD 13G    
1 54225U 22146A   26194.84878138  .00000000  00000+0  00000+0 0  9990
2 54225   0.0146 236.0241 0002419 309.3765  64.8996  1.00268715  7737
ZHONGXING-19            
1 54230U 22148A   26195.16360182  .00000000  00000+0  00000+0 0  9999
2 54230   0.0187  45.1544 0002982  94.8189  14.1471  1.00269370 13656
GALAXY 31 (G-31)        
1 54243U 22153A   26195.21845464  .00000007  00000+0  00000+0 0  9993
2 54243   0.0161  68.2238 0000962  51.4702 130.0140  1.00270892  7402
GALAXY 32 (G-32)        
1 54244U 22153B   26194.50947838 -.00000178  00000+0  00000+0 0  9993
2 54244   0.0121  29.6563 0001400  18.1075 336.0269  1.00269974 13408
EUTELSAT 10B            
1 54259U 22157A   26194.84808802  .00000062  00000+0  00000+0 0  9998
2 54259   0.0596  94.5144 0001843  32.7827 119.7186  1.00267733 13296
GALAXY 35 (G-35)        
1 54741U 22170A   26195.12540637  .00000000  00000+0  00000+0 0  9992
2 54741   0.0266  69.7707 0001918  47.6160 126.6479  1.00268459 13167
GALAXY 36 (G-36)        
1 54742U 22170B   26194.97111506 -.00000191  00000+0  00000+0 0  9996
2 54742   0.0093 133.9399 0002386 326.3362  92.1618  1.00270487 13041
METEOSAT-12 (MTG-I1)    
1 54743U 22170C   26195.13127500 -.00000015  00000+0  00000+0 0  9992
2 54743   0.7239  19.5033 0003778  82.3169 237.1294  1.00267426 13247
SHIJIAN-23 (SJ-23)      
1 55131U 23002A   26194.77423154 -.00000357  00000+0  00000+0 0  9991
2 55131   3.7833  77.9768 0003432 270.3095 352.1879  1.00077393 12775
APSTAR-6E               
1 55239U 23005A   26194.80139883 -.00000323  00000+0  00000+0 0  9993
2 55239   0.0668 239.2682 0001717 340.0712 134.8519  1.00265658 18958
USA 342                 
1 55263U 23008A   26190.28864118  .00000000  00000+0  00000+0 0  9998
2 55263   0.0052 352.2306 0000262   7.3445  55.4773  1.00269378 12734
LDPE-3A                 
1 55264U 23008B   26194.94572161 -.00000303  00000+0  00000+0 0  9997
2 55264   2.4153  81.3327 0001505  79.3847 254.3877  0.99150476 12079
ELEKTRO-L 4             
1 55506U 23016A   26194.72942080 -.00000063  00000+0  00000+0 0  9995
2 55506   0.1240 277.9469 0001520 268.5130 173.5238  1.00269889 12608
AMAZONAS NEXUS          
1 55508U 23017A   26194.76278007 -.00000287  00000+0  00000+0 0  9991
2 55508   0.0356  42.7695 0004364  42.6416  59.8176  1.00268939  7317
ZHONGXING-26            
1 55686U 23023A   26195.01346951 -.00000360  00000+0  00000+0 0  9990
2 55686   0.0634  70.6483 0003172  27.0927 324.0938  1.00267642 12496
LUCH-5X (OLYMP-K 2)     
1 55841U 23031A   26194.71585002  .00000029  00000+0  00000+0 0  9991
2 55841   0.0297  94.8289 0000896 172.1151 344.3269  1.00271441 12200
GAOFEN-13 02            
1 55912U 23036A   26194.72904061 -.00000223  00000+0  00000+0 0  9993
2 55912   1.0272   4.3821 0003724 336.0876   1.8028  1.00274536 12351
SES-18                  
1 55970U 23038A   26195.12419221 -.00000107  00000+0  00000+0 0  9994
2 55970   0.0557 258.0124 0000830 311.3054  24.2918  1.00271595 12374
SES-19                  
1 55971U 23038B   26193.96403530  .00000086  00000+0  00000+0 0  9996
2 55971   0.0165 326.4823 0001595 156.8223  19.7105  1.00273078 12358
INTELSAT 40E (IS-40E)   
1 56174U 23052A   26195.11326751  .00000000  00000+0  00000+0 0  9992
2 56174   0.0256  70.6263 0002275  75.6573  95.4875  1.00269225 12098
VIASAT-3 F1             
1 56370U 23060A   26193.61666089  .00000000  00000+0  00000+0 0  9993
2 56370   0.0161  22.0903 0001019  87.2892 314.1503  1.00270234 11686
ARCTURUS                
1 56371U 23060B   26195.07931355 -.00000339  00000+0  00000+0 0  9993
2 56371   2.8414  79.6072 0000933 132.0136 206.5999  1.00595160 11723
GS-1                    
1 56372U 23060C   26194.93514823 -.00000230  00000+0  00000+0 0  9995
2 56372   2.7922  79.5163 0003404 281.1231 357.1420  1.00267117  7809
BEIDOU-3 G4             
1 56564U 23066A   26195.23030950 -.00000287  00000+0  00000+0 0  9994
2 56564   0.4614 338.6274 0004877 187.7470 348.6909  1.00272748 11660
ARABSAT-7B (BADR-8)     
1 56757U 23075A   26194.06715740  .00000143  00000+0  00000+0 0  9995
2 56757   0.0751  31.4954 0003307 358.8618 310.7639  1.00271123 11371
NVS-01 (IRNSS-1J)       
1 56759U 23076A   26195.01433617 -.00000342  00000+0  00000+0 0  9996
2 56759   2.1045 243.1361 0003567   7.3766 175.9783  1.00265168 11388
NUSANTARA TIGA (SATRIA) 
1 57045U 23086A   26194.52515212 -.00000239  00000+0  00000+0 0  9998
2 57045   0.0347  13.2245 0002192 326.8860 286.3349  1.00267768 10026
H2SAT (HEINRICH HERTZ)  
1 57213U 23093A   26195.13144832 -.00000005  00000+0  00000+0 0  9998
2 57213   0.0212  98.1564 0000382  50.2470 191.6036  1.00269980 11181
SYRACUSE 4B             
1 57214U 23093B   26194.55973402  .00000000  00000+0  00000+0 0  9991
2 57214   0.0280  56.3015 0000448 204.3313 225.8578  1.00269537  7235
JUPITER 3 (ECHOSTAR 24) 
1 57479U 23108A   26194.45517507 -.00000154  00000+0  00000+0 0  9991
2 57479   0.0124  33.8048 0001178  74.3050 251.8897  1.00272946 10904
GALAXY 37 (G-37)        
1 57493U 23112A   26194.96357501  .00000042  00000+0  00000+0 0  9999
2 57493   0.0218  73.5270 0001739  44.1230  34.0616  1.00271325 10810
